{"type": "FeatureCollection", "features": [ {"type": "Feature", "properties": {"norad_id": 35674, "name": "COSMOS 2251 DEB", "group": "cosmos-2251-debris", "lat": 71.36747533080478, "lon": 88.48596224784016, "alt_km": 701.3316506832462, "timestamp": "2025-12-07T11:27:50.403630+00:00", "meta": {"OBJECT_NAME": "COSMOS 2251 DEB", "OBJECT_ID": "1993-036APR", "EPOCH": "2025-12-06T05:17:28.209696", "MEAN_MOTION": 14.54037935, "ECCENTRICITY": 0.0095963, "INCLINATION": 74.0595, "RA_OF_ASC_NODE": 328.8178, "ARG_OF_PERICENTER": 15.1029, "MEAN_ANOMALY": 345.2962, "EPHEMERIS_TYPE": 0, "CLASSIFICATION_TYPE": "U", "NORAD_CAT_ID": 35674, "ELEMENT_SET_NO": 999, "REV_AT_EPOCH": 86016, "BSTAR": 0.0028900264, "MEAN_MOTION_DOT": 0.00012958, "MEAN_MOTION_DDOT": 0}, "tle": {"line1": "1 35674U 93036APR 25340.22046539  .00012958  00000+0  28900-2 0  9996", "line2": "2 35674  74.0595 328.8178 0095963  15.1029 345.2962 14.54037935860167"}}, "geometry": {"type": "Point", "coordinates": [88.48596224784016, 71.36747533080478]}}, {"type": "Feature", "properties": {"norad_id": 35701, "name": "COSMOS 2251 DEB", "group": "cosmos-2251-debris", "lat": -11.47020410163092, "lon": -52.1077166265231, "alt_km": 1176.015391259205, "timestamp": "2025-12-07T11:27:50.403640+00:00", "meta": {"OBJECT_NAME": "COSMOS 2251 DEB", "OBJECT_ID": "1993-036APW", "EPOCH": "2025-12-06T05:57:57.623904", "MEAN_MOTION": 13.80843435, "ECCENTRICITY": 0.02897209, "INCLINATION": 74.0028, "RA_OF_ASC_NODE": 313.2955, "ARG_OF_PERICENTER": 164.0681, "MEAN_ANOMALY": 196.98, "EPHEMERIS_TYPE": 0, "CLASSIFICATION_TYPE": "U", "NORAD_CAT_ID": 35701, "ELEMENT_SET_NO": 999, "REV_AT_EPOCH": 62069, "BSTAR": 0.0021223911, "MEAN_MOTION_DOT": 3.05e-05, "MEAN_MOTION_DDOT": 0}, "tle": {"line1": "1 35701U 93036APW 25340.24858361  .00003050  00000+0  21224-2 0  9998", "line2": "2 35701  74.0028 313.2955 0289720 164.0681 196.9800 13.80843435620696"}}, "geometry": {"type": "Point", "coordinates": [-52.1077166265231, -11.47020410163092]}}, {"type": "Feature", "properties": {"norad_id": 35703, "name": "COSMOS 2251 DEB", "group": "cosmos-2251-debris", "lat": 73.2997655247398, "lon": 160.79892324312289, "alt_km": 550.4377151940926, "timestamp": "2025-12-07T11:27:50.403650+00:00", "meta": {"OBJECT_NAME": "COSMOS 2251 DEB", "OBJECT_ID": "1993-036APY", "EPOCH": "2025-12-06T22:09:04.671936", "MEAN_MOTION": 14.90227446, "ECCENTRICITY": 0.00650635, "INCLINATION": 74.0429, "RA_OF_ASC_NODE": 54.4061, "ARG_OF_PERICENTER": 126.2327, "MEAN_ANOMALY": 234.4893, "EPHEMERIS_TYPE": 0, "CLASSIFICATION_TYPE": "U", "NORAD_CAT_ID": 35703, "ELEMENT_SET_NO": 999, "REV_AT_EPOCH": 66529, "BSTAR": 0.0011612165, "MEAN_MOTION_DOT": 0.00011706, "MEAN_MOTION_DDOT": 0}, "tle": {"line1": "1 35703U 93036APY 25340.92297074  .00011706  00000+0  11612-2 0  9990", "line2": "2 35703  74.0429  54.4061 0065063 126.2327 234.4893 14.90227446665299"}}, "geometry": {"type": "Point", "coordinates": [160.79892324312289, 73.2997655247398]}}, {"type": "Feature", "properties": {"norad_id": 35705, "name": "COSMOS 2251 DEB", "group": "cosmos-2251-debris", "lat": -40.616545053744986, "lon": -20.112569801282863, "alt_km": 673.8604436738951, "timestamp": "2025-12-07T11:27:50.403660+00:00", "meta": {"OBJECT_NAME": "COSMOS 2251 DEB", "OBJECT_ID": "1993-036AQA", "EPOCH": "2025-12-03T05:18:59.084352", "MEAN_MOTION": 14.71707631, "ECCENTRICITY": 0.0034156, "INCLINATION": 74.2742, "RA_OF_ASC_NODE": 154.0557, "ARG_OF_PERICENTER": 110.0272, "MEAN_ANOMALY": 250.4584, "EPHEMERIS_TYPE": 0, "CLASSIFICATION_TYPE": "U", "NORAD_CAT_ID": 35705, "ELEMENT_SET_NO": 999, "REV_AT_EPOCH": 85786, "BSTAR": 0.0035867, "MEAN_MOTION_DOT": 0.00022615, "MEAN_MOTION_DDOT": 0}, "tle": {"line1": "1 35705U 93036AQA 25337.22151718  .00022615  00000+0  35867-2 0  9994", "line2": "2 35705  74.2742 154.0557 0034156 110.0272 250.4584 14.71707631857866"}}, "geometry": {"type": "Point", "coordinates": [-20.112569801282863, -40.616545053744986]}}, {"type": "Feature", "properties": {"norad_id": 35706, "name": "COSMOS 2251 DEB", "group": "cosmos-2251-debris", "lat": -28.759337784242273, "lon": 62.37452310601722, "alt_km": 1241.1638020659675, "timestamp": "2025-12-07T11:27:50.403670+00:00", "meta": {"OBJECT_NAME": "COSMOS 2251 DEB", "OBJECT_ID": "1993-036AQB", "EPOCH": "2025-12-06T12:46:02.118144", "MEAN_MOTION": 13.6590255, "ECCENTRICITY": 0.03413155, "INCLINATION": 73.889, "RA_OF_ASC_NODE": 73.0632, "ARG_OF_PERICENTER": 124.0409, "MEAN_ANOMALY": 239.3616, "EPHEMERIS_TYPE": 0, "CLASSIFICATION_TYPE": "U", "NORAD_CAT_ID": 35706, "ELEMENT_SET_NO": 999, "REV_AT_EPOCH": 61977, "BSTAR": 0.0020488597, "MEAN_MOTION_DOT": 2.489e-05, "MEAN_MOTION_DDOT": 0}, "tle": {"line1": "1 35706U 93036AQB 25340.53196896  .00002489  00000+0  20489-2 0  9990", "line2": "2 35706  73.8890  73.0632 0341315 124.0409 239.3616 13.65902550619772"}}, "geometry": {"type": "Point", "coordinates": [62.37452310601722, -28.759337784242273]}}, {"type": "Feature", "properties": {"norad_id": 35711, "name": "COSMOS 2251 DEB", "group": "cosmos-2251-debris", "lat": -6.074266473225533, "lon": -131.18653579290532, "alt_km": 628.2193298100037, "timestamp": "2025-12-07T11:27:50.403680+00:00", "meta": {"OBJECT_NAME": "COSMOS 2251 DEB", "OBJECT_ID": "1993-036AQG", "EPOCH": "2025-12-04T11:19:14.539584", "MEAN_MOTION": 14.63763095, "ECCENTRICITY": 0.0085131, "INCLINATION": 74.047, "RA_OF_ASC_NODE": 236.3228, "ARG_OF_PERICENTER": 339.3303, "MEAN_ANOMALY": 20.4427, "EPHEMERIS_TYPE": 0, "CLASSIFICATION_TYPE": "U", "NORAD_CAT_ID": 35711, "ELEMENT_SET_NO": 999, "REV_AT_EPOCH": 87650, "BSTAR": 0.00064568, "MEAN_MOTION_DOT": 3.517e-05, "MEAN_MOTION_DDOT": 0}, "tle": {"line1": "1 35711U 93036AQG 25338.47169606  .00003517  00000+0  64568-3 0  9995", "line2": "2 35711  74.0470 236.3228 0085131 339.3303  20.4427 14.63763095876508"}}, "geometry": {"type": "Point", "coordinates": [-131.18653579290532, -6.074266473225533]}}, {"type": "Feature", "properties": {"norad_id": 35716, "name": "COSMOS 2251 DEB", "group": "cosmos-2251-debris", "lat": 34.218242190140494, "lon": 13.014250556057958, "alt_km": 697.9759070898581, "timestamp": "2025-12-07T11:27:50.403690+00:00", "meta": {"OBJECT_NAME": "COSMOS 2251 DEB", "OBJECT_ID": "1993-036AQM", "EPOCH": "2025-12-06T21:45:23.385888", "MEAN_MOTION": 14.60076352, "ECCENTRICITY": 0.00885119, "INCLINATION": 73.9929, "RA_OF_ASC_NODE": 205.3647, "ARG_OF_PERICENTER": 47.8534, "MEAN_ANOMALY": 334.3728, "EPHEMERIS_TYPE": 0, "CLASSIFICATION_TYPE": "U", "NORAD_CAT_ID": 35716, "ELEMENT_SET_NO": 999, "REV_AT_EPOCH": 87542, "BSTAR": 0.00021173937, "MEAN_MOTION_DOT": 1.043e-05, "MEAN_MOTION_DDOT": 0}, "tle": {"line1": "1 35716U 93036AQM 25340.90652067  .00001043  00000+0  21174-3 0  9997", "line2": "2 35716  73.9929 205.3647 0088511  47.8534 334.3728 14.60076352875424"}}, "geometry": {"type": "Point", "coordinates": [13.014250556057958, 34.218242190140494]}}, {"type": "Feature", "properties": {"norad_id": 35717, "name": "COSMOS 2251 DEB", "group": "cosmos-2251-debris", "lat": -37.462026835519765, "lon": -145.44251891736684, "alt_km": 802.7369937905223, "timestamp": "2025-12-07T11:27:50.403701+00:00", "meta": {"OBJECT_NAME": "COSMOS 2251 DEB", "OBJECT_ID": "1993-036AQN", "EPOCH": "2025-12-06T10:36:33.500160", "MEAN_MOTION": 14.38423787, "ECCENTRICITY": 0.00767712, "INCLINATION": 74.1605, "RA_OF_ASC_NODE": 229.016, "ARG_OF_PERICENTER": 90.4619, "MEAN_ANOMALY": 270.5333, "EPHEMERIS_TYPE": 0, "CLASSIFICATION_TYPE": "U", "NORAD_CAT_ID": 35717, "ELEMENT_SET_NO": 999, "REV_AT_EPOCH": 74009, "BSTAR": 0.0021950954, "MEAN_MOTION_DOT": 6.912e-05, "MEAN_MOTION_DDOT": 0}, "tle": {"line1": "1 35717U 93036AQN 25340.44205440  .00006912  00000+0  21951-2 0  9998", "line2": "2 35717  74.1605 229.0160 0076771  90.4619 270.5333 14.38423787740095"}}, "geometry": {"type": "Point", "coordinates": [-145.44251891736684, -37.462026835519765]}}, {"type": "Feature", "properties": {"norad_id": 35718, "name": "COSMOS 2251 DEB", "group": "cosmos-2251-debris", "lat": -33.54883669188879, "lon": -28.90113396618902, "alt_km": 664.2453043618389, "timestamp": "2025-12-07T11:27:50.403711+00:00", "meta": {"OBJECT_NAME": "COSMOS 2251 DEB", "OBJECT_ID": "1993-036AQP", "EPOCH": "2025-12-05T17:36:46.838880", "MEAN_MOTION": 14.68459598, "ECCENTRICITY": 0.00116835, "INCLINATION": 74.0307, "RA_OF_ASC_NODE": 143.5251, "ARG_OF_PERICENTER": 192.5822, "MEAN_ANOMALY": 167.5059, "EPHEMERIS_TYPE": 0, "CLASSIFICATION_TYPE": "U", "NORAD_CAT_ID": 35718, "ELEMENT_SET_NO": 999, "REV_AT_EPOCH": 65737, "BSTAR": 0.0029286421, "MEAN_MOTION_DOT": 0.00016991, "MEAN_MOTION_DDOT": 0}, "tle": {"line1": "1 35718U 93036AQP 25339.73387545  .00016991  00000+0  29286-2 0  9993", "line2": "2 35718  74.0307 143.5251 0011683 192.5822 167.5059 14.68459598657376"}}, "geometry": {"type": "Point", "coordinates": [-28.90113396618902, -33.54883669188879]}}, {"type": "Feature", "properties": {"norad_id": 35721, "name": "COSMOS 2251 DEB", "group": "cosmos-2251-debris", "lat": 15.602817015913658, "lon": 2.8224070685396474, "alt_km": 881.3281959187361, "timestamp": "2025-12-07T11:27:50.403721+00:00", "meta": {"OBJECT_NAME": "COSMOS 2251 DEB", "OBJECT_ID": "1993-036AQS", "EPOCH": "2025-11-29T21:54:16.243200", "MEAN_MOTION": 14.34192363, "ECCENTRICITY": 0.01464404, "INCLINATION": 73.9503, "RA_OF_ASC_NODE": 201.3539, "ARG_OF_PERICENTER": 350.3358, "MEAN_ANOMALY": 9.498, "EPHEMERIS_TYPE": 0, "CLASSIFICATION_TYPE": "U", "NORAD_CAT_ID": 35721, "ELEMENT_SET_NO": 999, "REV_AT_EPOCH": 57605, "BSTAR": 0.0014885779, "MEAN_MOTION_DOT": 4.68e-05, "MEAN_MOTION_DDOT": 0}, "tle": {"line1": "1 35721U 93036AQS 25333.91268800  .00004680  00000+0  14886-2 0  9995", "line2": "2 35721  73.9503 201.3539 0146440 350.3358   9.4980 14.34192363576055"}}, "geometry": {"type": "Point", "coordinates": [2.8224070685396474, 15.602817015913658]}}]}